{
  "type": "FeatureCollection",
  "features": [
    {
      "type": "Feature",
      "properties": {
        "norad_id": 66525,
        "name": "STARLINK-35975",
        "group": "last-30-days",
        "lat": -42.3213315738733,
        "lon": -32.8738333557665,
        "alt_km": 445.3773276599759,
        "timestamp": "2025-12-14T07:33:18.186317+00:00",
        "meta_object_name": "STARLINK-35975",
        "meta_object_id": "2025-265K",
        "meta_epoch": "2025-12-13T14:00:03.000384",
        "meta_mean_motion": 15.44149828,
        "meta_eccentricity": 0.00011718,
        "meta_inclination": 43.0009,
        "meta_ra_of_asc_node": 49.0878,
        "meta_arg_of_pericenter": 303.3103,
        "meta_mean_anomaly": 229.1504,
        "meta_ephemeris_type": 0,
        "meta_classification_type": "U",
        "meta_norad_cat_id": 66525,
        "meta_element_set_no": 999,
        "meta_rev_at_epoch": 513,
        "meta_bstar": -0.048042534,
        "meta_mean_motion_dot": -0.02007873,
        "meta_mean_motion_ddot": 0,
        "tle_line1": "1 66525U 25265K   25347.58336806 -.02007873  00000+0 -48043-1 0  9992",
        "tle_line2": "2 66525  43.0009  49.0878 0001171 303.3103 229.1504 15.44149828  5139"
      },
      "geometry": {
        "type": "Point",
        "coordinates": [
          -32.8738333557665,
          -42.3213315738733
        ]
      }
    },
    {
      "type": "Feature",
      "properties": {
        "norad_id": 66526,
        "name": "STARLINK-35932",
        "group": "last-30-days",
        "lat": -26.62041672912949,
        "lon": 12.221016322145214,
        "alt_km": 416.2486946810086,
        "timestamp": "2025-12-14T07:33:18.186328+00:00",
        "meta_object_name": "STARLINK-35932",
        "meta_object_id": "2025-265L",
        "meta_epoch": "2025-12-13T13:10:54.246144",
        "meta_mean_motion": 15.50620729,
        "meta_eccentricity": 0.00021706,
        "meta_inclination": 43.0001,
        "meta_ra_of_asc_node": 49.2392,
        "meta_arg_of_pericenter": 247.0025,
        "meta_mean_anomaly": 113.0606,
        "meta_ephemeris_type": 0,
        "meta_classification_type": "U",
        "meta_norad_cat_id": 66526,
        "meta_element_set_no": 999,
        "meta_rev_at_epoch": 388,
        "meta_bstar": 0.0021080281,
        "meta_mean_motion_dot": 0.00125518,
        "meta_mean_motion_ddot": 0,
        "tle_line1": "1 66526U 25265L   25347.54923896  .00125518  00000+0  21080-2 0  9996",
        "tle_line2": "2 66526  43.0001  49.2392 0002170 247.0025 113.0606 15.50620729  3887"
      },
      "geometry": {
        "type": "Point",
        "coordinates": [
          12.221016322145214,
          -26.62041672912949
        ]
      }
    },
    {
      "type": "Feature",
      "properties": {
        "norad_id": 66527,
        "name": "STARLINK-35935",
        "group": "last-30-days",
        "lat": -25.66255182856213,
        "lon": 13.717119093735272,
        "alt_km": 414.0921721000386,
        "timestamp": "2025-12-14T07:33:18.186338+00:00",
        "meta_object_name": "STARLINK-35935",
        "meta_object_id": "2025-265M",
        "meta_epoch": "2025-12-13T11:37:41.143872",
        "meta_mean_motion": 15.50556406,
        "meta_eccentricity": 0.00046793,
        "meta_inclination": 43.0007,
        "meta_ra_of_asc_node": 49.6123,
        "meta_arg_of_pericenter": 286.0879,
        "meta_mean_anomaly": 73.9466,
        "meta_ephemeris_type": 0,
        "meta_classification_type": "U",
        "meta_norad_cat_id": 66527,
        "meta_element_set_no": 999,
        "meta_rev_at_epoch": 387,
        "meta_bstar": 0.0023034303,
        "meta_mean_motion_dot": 0.00137109,
        "meta_mean_motion_ddot": 0,
        "tle_line1": "1 66527U 25265M   25347.48450398  .00137109  00000+0  23034-2 0  9992",
        "tle_line2": "2 66527  43.0007  49.6123 0004679 286.0879  73.9466 15.50556406  3873"
      },
      "geometry": {
        "type": "Point",
        "coordinates": [
          13.717119093735272,
          -25.66255182856213
        ]
      }
    },
    {
      "type": "Feature",
      "properties": {
        "norad_id": 66528,
        "name": "STARLINK-35928",
        "group": "last-30-days",
        "lat": -24.417177015508738,
        "lon": 15.594217849992672,
        "alt_km": 416.9405982054859,
        "timestamp": "2025-12-14T07:33:18.186348+00:00",
        "meta_object_name": "STARLINK-35928",
        "meta_object_id": "2025-265N",
        "meta_epoch": "2025-12-13T11:37:09.503328",
        "meta_mean_motion": 15.50586867,
        "meta_eccentricity": 0.00010216,
        "meta_inclination": 43.001,
        "meta_ra_of_asc_node": 49.6093,
        "meta_arg_of_pericenter": 211.1847,
        "meta_mean_anomaly": 148.8953,
        "meta_ephemeris_type": 0,
        "meta_classification_type": "U",
        "meta_norad_cat_id": 66528,
        "meta_element_set_no": 999,
        "meta_rev_at_epoch": 387,
        "meta_bstar": 0.0019251236,
        "meta_mean_motion_dot": 0.0011429,
        "meta_mean_motion_ddot": 0,
        "tle_line1": "1 66528U 25265N   25347.48413777  .00114290  00000+0  19251-2 0  9995",
        "tle_line2": "2 66528  43.0010  49.6093 0001021 211.1847 148.8953 15.50586867  3873"
      },
      "geometry": {
        "type": "Point",
        "coordinates": [
          15.594217849992672,
          -24.417177015508738
        ]
      }
    },
    {
      "type": "Feature",
      "properties": {
        "norad_id": 66529,
        "name": "STARLINK-35933",
        "group": "last-30-days",
        "lat": -36.880122544570355,
        "lon": -81.42811542412076,
        "alt_km": 446.26347865389744,
        "timestamp": "2025-12-14T07:33:18.186359+00:00",
        "meta_object_name": "STARLINK-35933",
        "meta_object_id": "2025-265P",
        "meta_epoch": "2025-12-13T14:00:03.000384",
        "meta_mean_motion": 15.40606027,
        "meta_eccentricity": 0.00012075,
        "meta_inclination": 43.0008,
        "meta_ra_of_asc_node": 49.1654,
        "meta_arg_of_pericenter": 264.9633,
        "meta_mean_anomaly": 235.0366,
        "meta_ephemeris_type": 0,
        "meta_classification_type": "U",
        "meta_norad_cat_id": 66529,
        "meta_element_set_no": 999,
        "meta_rev_at_epoch": 513,
        "meta_bstar": 0.0025002641,
        "meta_mean_motion_dot": 0.00105261,
        "meta_mean_motion_ddot": 0,
        "tle_line1": "1 66529U 25265P   25347.58336806  .00105261  00000+0  25003-2 0  9994",
        "tle_line2": "2 66529  43.0008  49.1654 0001207 264.9633 235.0366 15.40606027  5132"
      },
      "geometry": {
        "type": "Point",
        "coordinates": [
          -81.42811542412076,
          -36.880122544570355
        ]
      }
    },
    {
      "type": "Feature",
      "properties": {
        "norad_id": 66530,
        "name": "STARLINK-35961",
        "group": "last-30-days",
        "lat": -42.865992395387714,
        "lon": -50.232941489395074,
        "alt_km": 447.43258956895716,
        "timestamp": "2025-12-14T07:33:18.186371+00:00",
        "meta_object_name": "STARLINK-35961",
        "meta_object_id": "2025-265Q",
        "meta_epoch": "2025-12-13T14:00:03.000384",
        "meta_mean_motion": 15.40919236,
        "meta_eccentricity": 0.00016933,
        "meta_inclination": 43.0006,
        "meta_ra_of_asc_node": 49.105,
        "meta_arg_of_pericenter": 299.0873,
        "meta_mean_anomaly": 225.6319,
        "meta_ephemeris_type": 0,
        "meta_classification_type": "U",
        "meta_norad_cat_id": 66530,
        "meta_element_set_no": 999,
        "meta_rev_at_epoch": 513,
        "meta_bstar": -0.0090711307,
        "meta_mean_motion_dot": -0.00364362,
        "meta_mean_motion_ddot": 0,
        "tle_line1": "1 66530U 25265Q   25347.58336806 -.00364362  00000+0 -90711-2 0  9995",
        "tle_line2": "2 66530  43.0006  49.1050 0001693 299.0873 225.6319 15.40919236  5138"
      },
      "geometry": {
        "type": "Point",
        "coordinates": [
          -50.232941489395074,
          -42.865992395387714
        ]
      }
    },
    {
      "type": "Feature",
      "properties": {
        "norad_id": 66531,
        "name": "STARLINK-35960",
        "group": "last-30-days",
        "lat": -39.36282100497416,
        "lon": -16.849952674130215,
        "alt_km": 444.56926917266173,
        "timestamp": "2025-12-14T07:33:18.186384+00:00",
        "meta_object_name": "STARLINK-35960",
        "meta_object_id": "2025-265R",
        "meta_epoch": "2025-12-13T14:00:03.000384",
        "meta_mean_motion": 15.44256961,
        "meta_eccentricity": 0.00011098,
        "meta_inclination": 43.0005,
        "meta_ra_of_asc_node": 49.0567,
        "meta_arg_of_pericenter": 286.6226,
        "meta_mean_anomaly": 257.9457,
        "meta_ephemeris_type": 0,
        "meta_classification_type": "U",
        "meta_norad_cat_id": 66531,
        "meta_element_set_no": 999,
        "meta_rev_at_epoch": 513,
        "meta_bstar": -0.046704718,
        "meta_mean_motion_dot": -0.01964291,
        "meta_mean_motion_ddot": 0,
        "tle_line1": "1 66531U 25265R   25347.58336806 -.01964291  00000+0 -46705-1 0  9997",
        "tle_line2": "2 66531  43.0005  49.0567 0001109 286.6226 257.9457 15.44256961  5130"
      },
      "geometry": {
        "type": "Point",
        "coordinates": [
          -16.849952674130215,
          -39.36282100497416
        ]
      }
    }
  ]
}